{"type": "FeatureCollection", "features": [ {"type": "Feature", "properties": {"norad_id": 34529, "name": "IRIDIUM 33 DEB", "group": "iridium-33-debris", "lat": -13.10820038626223, "lon": -139.71240032693404, "alt_km": 758.685775694903, "timestamp": "2025-12-03T06:58:43.626733+00:00", "meta": {"OBJECT_NAME": "IRIDIUM 33 DEB", "OBJECT_ID": "1997-051HW", "EPOCH": "2025-12-02T10:04:51.751488", "MEAN_MOTION": 14.40602399, "ECCENTRICITY": 0.00035817, "INCLINATION": 86.365, "RA_OF_ASC_NODE": 39.8104, "ARG_OF_PERICENTER": 214.776, "MEAN_ANOMALY": 145.3205, "EPHEMERIS_TYPE": 0, "CLASSIFICATION_TYPE": "U", "NORAD_CAT_ID": 34529, "ELEMENT_SET_NO": 999, "REV_AT_EPOCH": 87993, "BSTAR": 0.00017051095, "MEAN_MOTION_DOT": 5.63e-06, "MEAN_MOTION_DDOT": 0}, "tle": {"line1": "1 34529U 97051HW  25336.42004342  .00000563  00000+0  17051-3 0  9993", "line2": "2 34529  86.3650  39.8104 0003581 214.7760 145.3205 14.40602399879936"}}, "geometry": {"type": "Point", "coordinates": [-139.71240032693404, -13.10820038626223]}}, {"type": "Feature", "properties": {"norad_id": 34538, "name": "IRIDIUM 33 DEB", "group": "iridium-33-debris", "lat": -37.904827249479226, "lon": 6.7894993709788904, "alt_km": 737.3012427938274, "timestamp": "2025-12-03T06:58:43.626744+00:00", "meta": {"OBJECT_NAME": "IRIDIUM 33 DEB", "OBJECT_ID": "1997-051JF", "EPOCH": "2025-12-02T19:44:57.372000", "MEAN_MOTION": 14.4255264, "ECCENTRICITY": 0.0034059, "INCLINATION": 86.2782, "RA_OF_ASC_NODE": 9.8993, "ARG_OF_PERICENTER": 1.2911, "MEAN_ANOMALY": 52.7157, "EPHEMERIS_TYPE": 0, "CLASSIFICATION_TYPE": "U", "NORAD_CAT_ID": 34538, "ELEMENT_SET_NO": 999, "REV_AT_EPOCH": 87613, "BSTAR": 0.0011771, "MEAN_MOTION_DOT": 3.95e-05, "MEAN_MOTION_DDOT": 0}, "tle": {"line1": "1 34538U 97051JF  25336.82288625  .00003950  00000+0  11771-2 0  9990", "line2": "2 34538  86.2782   9.8993 0034059   1.2911  52.7157 14.42552640876136"}}, "geometry": {"type": "Point", "coordinates": [6.7894993709788904, -37.904827249479226]}}, {"type": "Feature", "properties": {"norad_id": 34540, "name": "IRIDIUM 33 DEB", "group": "iridium-33-debris", "lat": -5.390109062767774, "lon": -48.422565310064115, "alt_km": 658.7145467432802, "timestamp": "2025-12-03T06:58:43.626754+00:00", "meta": {"OBJECT_NAME": "IRIDIUM 33 DEB", "OBJECT_ID": "1997-051JH", "EPOCH": "2025-12-02T10:24:08.671680", "MEAN_MOTION": 14.74958051, "ECCENTRICITY": 0.00146832, "INCLINATION": 86.3092, "RA_OF_ASC_NODE": 312.3182, "ARG_OF_PERICENTER": 197.1852, "MEAN_ANOMALY": 288.0339, "EPHEMERIS_TYPE": 0, "CLASSIFICATION_TYPE": "U", "NORAD_CAT_ID": 34540, "ELEMENT_SET_NO": 999, "REV_AT_EPOCH": 88869, "BSTAR": 0.0020015348, "MEAN_MOTION_DOT": 0.00013506, "MEAN_MOTION_DDOT": 0}, "tle": {"line1": "1 34540U 97051JH  25336.43343370  .00013506  00000+0  20015-2 0  9998", "line2": "2 34540  86.3092 312.3182 0014683 197.1852 288.0339 14.74958051888697"}}, "geometry": {"type": "Point", "coordinates": [-48.422565310064115, -5.390109062767774]}}, {"type": "Feature", "properties": {"norad_id": 34648, "name": "IRIDIUM 33 DEB", "group": "iridium-33-debris", "lat": 27.973519230177825, "lon": 103.83801332108544, "alt_km": 989.7395606684195, "timestamp": "2025-12-03T06:58:43.626765+00:00", "meta": {"OBJECT_NAME": "IRIDIUM 33 DEB", "OBJECT_ID": "1997-051JZ", "EPOCH": "2025-12-01T03:11:38.418720", "MEAN_MOTION": 14.1087899, "ECCENTRICITY": 0.01868529, "INCLINATION": 86.3903, "RA_OF_ASC_NODE": 286.6295, "ARG_OF_PERICENTER": 334.6513, "MEAN_ANOMALY": 24.5588, "EPHEMERIS_TYPE": 0, "CLASSIFICATION_TYPE": "U", "NORAD_CAT_ID": 34648, "ELEMENT_SET_NO": 999, "REV_AT_EPOCH": 84797, "BSTAR": 0.0079356223, "MEAN_MOTION_DOT": 0.00016788, "MEAN_MOTION_DDOT": 0}, "tle": {"line1": "1 34648U 97051JZ  25335.13308355  .00016788  00000+0  79356-2 0  9994", "line2": "2 34648  86.3903 286.6295 0186852 334.6513  24.5588 14.10878990847973"}}, "geometry": {"type": "Point", "coordinates": [103.83801332108544, 27.973519230177825]}}, {"type": "Feature", "properties": {"norad_id": 34651, "name": "IRIDIUM 33 DEB", "group": "iridium-33-debris", "lat": 78.15018016897446, "lon": 162.64491354480379, "alt_km": 891.7181464514479, "timestamp": "2025-12-03T06:58:43.626775+00:00", "meta": {"OBJECT_NAME": "IRIDIUM 33 DEB", "OBJECT_ID": "1997-051KC", "EPOCH": "2025-12-02T05:19:54.206688", "MEAN_MOTION": 14.25531146, "ECCENTRICITY": 0.0141862, "INCLINATION": 86.2826, "RA_OF_ASC_NODE": 145.0488, "ARG_OF_PERICENTER": 237.4272, "MEAN_ANOMALY": 121.3155, "EPHEMERIS_TYPE": 0, "CLASSIFICATION_TYPE": "U", "NORAD_CAT_ID": 34651, "ELEMENT_SET_NO": 999, "REV_AT_EPOCH": 85746, "BSTAR": 0.0036308, "MEAN_MOTION_DOT": 9.56e-05, "MEAN_MOTION_DDOT": 0}, "tle": {"line1": "1 34651U 97051KC  25336.22215517  .00009560  00000+0  36308-2 0  9996", "line2": "2 34651  86.2826 145.0488 0141862 237.4272 121.3155 14.25531146857462"}}, "geometry": {"type": "Point", "coordinates": [162.64491354480379, 78.15018016897446]}}, {"type": "Feature", "properties": {"norad_id": 34652, "name": "IRIDIUM 33 DEB", "group": "iridium-33-debris", "lat": -22.31016508274232, "lon": -17.299286122413378, "alt_km": 673.466333367167, "timestamp": "2025-12-03T06:58:43.626785+00:00", "meta": {"OBJECT_NAME": "IRIDIUM 33 DEB", "OBJECT_ID": "1997-051KD", "EPOCH": "2025-12-02T12:03:44.445600", "MEAN_MOTION": 14.61898676, "ECCENTRICITY": 0.00270627, "INCLINATION": 86.3312, "RA_OF_ASC_NODE": 344.5601, "ARG_OF_PERICENTER": 334.9096, "MEAN_ANOMALY": 177.4047, "EPHEMERIS_TYPE": 0, "CLASSIFICATION_TYPE": "U", "NORAD_CAT_ID": 34652, "ELEMENT_SET_NO": 999, "REV_AT_EPOCH": 88334, "BSTAR": 0.0012168376, "MEAN_MOTION_DOT": 6.139e-05, "MEAN_MOTION_DDOT": 0}, "tle": {"line1": "1 34652U 97051KD  25336.50259775  .00006139  00000+0  12168-2 0  9999", "line2": "2 34652  86.3312 344.5601 0027062 334.9096 177.4047 14.61898676883341"}}, "geometry": {"type": "Point", "coordinates": [-17.299286122413378, -22.31016508274232]}}, {"type": "Feature", "properties": {"norad_id": 34690, "name": "IRIDIUM 33 DEB", "group": "iridium-33-debris", "lat": 75.1960450824542, "lon": 54.95944590014517, "alt_km": 694.234341672166, "timestamp": "2025-12-03T06:58:43.626795+00:00", "meta": {"OBJECT_NAME": "IRIDIUM 33 DEB", "OBJECT_ID": "1997-051KM", "EPOCH": "2025-12-02T11:05:34.177632", "MEAN_MOTION": 14.5503094, "ECCENTRICITY": 0.00118516, "INCLINATION": 86.3794, "RA_OF_ASC_NODE": 41.4576, "ARG_OF_PERICENTER": 59.8454, "MEAN_ANOMALY": 358.3612, "EPHEMERIS_TYPE": 0, "CLASSIFICATION_TYPE": "U", "NORAD_CAT_ID": 34690, "ELEMENT_SET_NO": 999, "REV_AT_EPOCH": 87945, "BSTAR": 0.00062693819, "MEAN_MOTION_DOT": 2.723e-05, "MEAN_MOTION_DDOT": 0}, "tle": {"line1": "1 34690U 97051KM  25336.46220113  .00002723  00000+0  62694-3 0  9995", "line2": "2 34690  86.3794  41.4576 0011851  59.8454 358.3612 14.55030940879451"}}, "geometry": {"type": "Point", "coordinates": [54.95944590014517, 75.1960450824542]}}, {"type": "Feature", "properties": {"norad_id": 34693, "name": "IRIDIUM 33 DEB", "group": "iridium-33-debris", "lat": -45.49857002810107, "lon": 132.27787895929103, "alt_km": 509.46028093077166, "timestamp": "2025-12-03T06:58:43.626806+00:00", "meta": {"OBJECT_NAME": "IRIDIUM 33 DEB", "OBJECT_ID": "1997-051KQ", "EPOCH": "2025-12-02T05:02:44.335968", "MEAN_MOTION": 15.24289177, "ECCENTRICITY": 0.0016139, "INCLINATION": 86.305, "RA_OF_ASC_NODE": 309.0413, "ARG_OF_PERICENTER": 69.1334, "MEAN_ANOMALY": 350.4377, "EPHEMERIS_TYPE": 0, "CLASSIFICATION_TYPE": "U", "NORAD_CAT_ID": 34693, "ELEMENT_SET_NO": 999, "REV_AT_EPOCH": 88754, "BSTAR": 0.0049862, "MEAN_MOTION_DOT": 0.00124045, "MEAN_MOTION_DDOT": 0}, "tle": {"line1": "1 34693U 97051KQ  25336.21023537  .00124045  00000+0  49862-2 0  9995", "line2": "2 34693  86.3050 309.0413 0016139  69.1334 350.4377 15.24289177887542"}}, "geometry": {"type": "Point", "coordinates": [132.27787895929103, -45.49857002810107]}}, {"type": "Feature", "properties": {"norad_id": 34696, "name": "IRIDIUM 33 DEB", "group": "iridium-33-debris", "lat": -67.4113495840777, "lon": -138.85722402980895, "alt_km": 651.5172105869851, "timestamp": "2025-12-03T06:58:43.626816+00:00", "meta": {"OBJECT_NAME": "IRIDIUM 33 DEB", "OBJECT_ID": "1997-051KT", "EPOCH": "2025-12-02T10:15:31.222080", "MEAN_MOTION": 14.64140444, "ECCENTRICITY": 0.00749638, "INCLINATION": 86.1859, "RA_OF_ASC_NODE": 32.3162, "ARG_OF_PERICENTER": 202.3954, "MEAN_ANOMALY": 176.9132, "EPHEMERIS_TYPE": 0, "CLASSIFICATION_TYPE": "U", "NORAD_CAT_ID": 34696, "ELEMENT_SET_NO": 999, "REV_AT_EPOCH": 86522, "BSTAR": 0.0067331829, "MEAN_MOTION_DOT": 0.00037042, "MEAN_MOTION_DDOT": 0}, "tle": {"line1": "1 34696U 97051KT  25336.42744470  .00037042  00000+0  67332-2 0  9999", "line2": "2 34696  86.1859  32.3162 0074963 202.3954 176.9132 14.64140444865222"}}, "geometry": {"type": "Point", "coordinates": [-138.85722402980895, -67.4113495840777]}}, {"type": "Feature", "properties": {"norad_id": 34765, "name": "IRIDIUM 33 DEB", "group": "iridium-33-debris", "lat": -60.79438916613041, "lon": -136.60957569882106, "alt_km": 754.0018831991947, "timestamp": "2025-12-03T06:58:43.626826+00:00", "meta": {"OBJECT_NAME": "IRIDIUM 33 DEB", "OBJECT_ID": "1997-051LJ", "EPOCH": "2025-12-02T05:08:41.186976", "MEAN_MOTION": 14.40418764, "ECCENTRICITY": 0.00145508, "INCLINATION": 86.3401, "RA_OF_ASC_NODE": 37.2773, "ARG_OF_PERICENTER": 249.3549, "MEAN_ANOMALY": 173.3707, "EPHEMERIS_TYPE": 0, "CLASSIFICATION_TYPE": "U", "NORAD_CAT_ID": 34765, "ELEMENT_SET_NO": 999, "REV_AT_EPOCH": 87462, "BSTAR": 0.00049787542, "MEAN_MOTION_DOT": 1.602e-05, "MEAN_MOTION_DDOT": 0}, "tle": {"line1": "1 34765U 97051LJ  25336.21436559  .00001602  00000+0  49788-3 0  9998", "line2": "2 34765  86.3401  37.2773 0014550 249.3549 173.3707 14.40418764874623"}}, "geometry": {"type": "Point", "coordinates": [-136.60957569882106, -60.79438916613041]}}]}